{"type":"FeatureCollection","metadata":{"proyecto":"Mapa Atl\u00e1ntico \u2014 Polygons (Air-e)","fecha":"2026-07-14","fuentes":"DANE MGN 2024, catastro IDEEP Soledad, POT Barranquilla, catastro AMB Galapa, AAA, OSM","tipo":"municipios","total":23},"features":[{"type":"Feature","properties":{"nombre":"BARRANQUILLA","color":"#1d4ed8"},"geometry":{"type":"Polygon","coordinates":[[[-74.84523723857566,11.071207976671818],[-74.85186053243683,11.105367257275333],[-74.85457021065986,11.105370386578988],[-74.84432102974941,11.06305571465035],[-74.84680773533911,11.058423650869827],[-74.86051038964638,11.051877149710952],[-74.87370238764721,11.048273862078064],[-74.8724367970575,11.04830381932294],[-74.87277143656883,11.045295160514245],[-74.87201275451416,11.047046674816402],[-74.86986023478654,11.046310177313801],[-74.87342156440793,11.031534162875975],[-74.87122955743537,11.02746507514446],[-74.86818777295014,11.026624953391288],[-74.87159815416275,11.022424380043303],[-74.86999735093656,11.021298298791924],[-74.86552924120615,11.026019420507161],[-74.86472391772361,11.024842125027236],[-74.85937270478007,11.031404715442449],[-74.8500105581104,11.029851438782972],[-74.84004299634657,11.032492640640474],[-74.82753916714216,11.038776796688346],[-74.82712373315418,11.037259348930743],[-74.83234664960715,11.030658724042707],[-74.83983560139862,11.013312887482991],[-74.84258951086959,11.012754761275815],[-74.85388108336102,11.01714054168583],[-74.86628545199547,11.015602934471357],[-74.87162431400215,11.009010660796589],[-74.87461627882006,11.011013392067866],[-74.8833323230014,11.001973480482405],[-74.87522433316451,10.995422480726164],[-74.8770059079686,10.9939581150934],[-74.87651395189145,10.990686931959548],[-74.87466420304214,10.99068718592908],[-74.8738286458604,10.987923718483279],[-74.87979317547934,10.981836230138155],[-74.88321157774912,10.980723604549516],[-74.88259999751716,10.974910029736918],[-74.89203500653954,10.98301898333913],[-74.89584889750306,10.982219574839661],[-74.89836506783409,10.97747771779767],[-74.90531523347433,10.971627748543836],[-74.90873425288673,10.9724953004772],[-74.90930813352114,10.971441498334565],[-74.8990339740559,10.96261301844291],[-74.90022662683444,10.960680691133652],[-74.90725324090198,10.960917088344745],[-74.90799801164617,10.95787732644279],[-74.91486513702155,10.957344327651978],[-74.91770332014427,10.954641164548933],[-74.91910500280459,10.94881772375066],[-74.91839993130775,10.945286750496257],[-74.90783144063629,10.950510147717974],[-74.90274190873167,10.949041319044627],[-74.90265679964669,10.950083430346469],[-74.89261821258494,10.95045484274569],[-74.89231066087267,10.945624930878566],[-74.87763382675892,10.945174119751593],[-74.86949576312297,10.939240724545908],[-74.85824361409608,10.936608160852117],[-74.85024735671423,10.938830756752859],[-74.8436997486107,10.928834793597236],[-74.83852502407778,10.92600701816932],[-74.8403448868759,10.921758233168168],[-74.83215554470856,10.915693475203419],[-74.82667494741466,10.913916096514894],[-74.81458328143228,10.922592619110047],[-74.79929254314496,10.921314857569511],[-74.79723867101195,10.923452228139043],[-74.79670191595159,10.928044017540259],[-74.7906628567068,10.93361072757404],[-74.782077747368,10.937624757377879],[-74.7800572763939,10.93267464230319],[-74.77757610442633,10.940673679331336],[-74.773787121949,10.944077218611783],[-74.76832113395658,10.945329243999607],[-74.76538485660144,10.943586832496957],[-74.76367798928965,10.94521669529468],[-74.76051326586621,10.944137397700022],[-74.75729559304497,10.945368104647066],[-74.75592136379805,10.969818336898241],[-74.76145240239347,10.991037087794652],[-74.77360982415632,11.007746321292327],[-74.7850468608417,11.018240387209417],[-74.79330734418964,11.023250760399879],[-74.80209078357689,11.032087449870513],[-74.8292514854311,11.04823794476746],[-74.83840732950421,11.0577879848404],[-74.84523723857566,11.071207976671818]]]}},{"type":"Feature","properties":{"nombre":"BARANOA","color":"#d7263d"},"geometry":{"type":"Polygon","coordinates":[[[-74.94481372802068,10.858419993367333],[-74.95064488387104,10.847417017807494],[-74.95875056773261,10.84249725334959],[-74.96034064956588,10.83948651379814],[-74.96308707607055,10.83844555750949],[-74.96370688217554,10.835570485394872],[-74.96625626591758,10.834577490656455],[-74.96511701079616,10.825854842276762],[-74.96844673497438,10.82061630457407],[-74.97153781720577,10.819202148012875],[-74.97160814451274,10.816567488322724],[-74.9732761659767,10.818169859143326],[-74.9751531382707,10.816428677976054],[-74.9753109480116,10.81757812361585],[-74.97586192609785,10.817786159196329],[-74.97788891614596,10.816108707520387],[-74.97972307563182,10.8175472836483],[-74.9847400173733,10.816158179468777],[-74.98626226562284,10.820191474635427],[-74.98985773122504,10.820972541535543],[-74.98998144451102,10.819567537466497],[-74.99169188711764,10.819706559005395],[-74.99110947697957,10.818636642343426],[-74.99297905524047,10.818787196607897],[-74.99209563402376,10.816671697070179],[-74.99462433585302,10.813997891197495],[-74.9937877276424,10.812859624647398],[-74.99201755245927,10.81382893373125],[-74.99103792706552,10.809629088527391],[-74.99558739182135,10.805825627837418],[-74.99346661496261,10.806541650122833],[-74.99117931829798,10.80463512015751],[-74.990432214629,10.800921395505759],[-74.99387446267802,10.797044770485154],[-74.99383285720563,10.795001433658536],[-74.98808345882591,10.793018711659926],[-74.98690740871044,10.790528595683774],[-74.97547328256658,10.789893123464642],[-74.97241700556087,10.791959672857514],[-74.96753416881657,10.78664461468877],[-74.96092823399997,10.784672300770698],[-74.95477614243794,10.786152495315113],[-74.95333063277154,10.78131280264899],[-74.95086305051757,10.780907893351516],[-74.95088002867645,10.779493372442861],[-74.945824878891,10.78067441648797],[-74.94454457120199,10.7775952264481],[-74.94104129700246,10.777183842756788],[-74.93920833497087,10.772098357289154],[-74.93419250803868,10.77079663185862],[-74.9308628099116,10.766480757741737],[-74.93264966860617,10.763539772023941],[-74.93171645197665,10.759266110078416],[-74.92602288658675,10.755257012213143],[-74.93562066944028,10.744059073650412],[-74.93232841309427,10.741871849691647],[-74.931351948872,10.738508504844786],[-74.93660365812647,10.733814583265115],[-74.93484555270751,10.731967277209995],[-74.93475413205937,10.727647773641062],[-74.94211282813461,10.714144546836488],[-74.93671862182158,10.711356055077182],[-74.93038608926169,10.711354363012155],[-74.92559071608673,10.709265937144256],[-74.92291067777651,10.709128361657687],[-74.92268703679663,10.71176083347519],[-74.91707667157173,10.71108862571767],[-74.91830282342553,10.706576191461611],[-74.91066226655684,10.70479966120615],[-74.90723735599282,10.708501448520444],[-74.90558868873164,10.704949671229715],[-74.9043679357527,10.70944331298043],[-74.90512271193253,10.715007102448132],[-74.90232680981528,10.718896441036074],[-74.89991346783819,10.716692113806767],[-74.89641965110198,10.719545267119942],[-74.88775966179435,10.714551034738426],[-74.88582580727825,10.719288807380998],[-74.87834810688572,10.721749693608357],[-74.87595473176246,10.724206492684266],[-74.87558399345144,10.725771043927763],[-74.87687555164109,10.724576086611807],[-74.87644494241302,10.726274515232015],[-74.87955930897658,10.72827945030939],[-74.88138411789866,10.726940632742952],[-74.88339519159655,10.72798753452496],[-74.8833573482686,10.730510798865785],[-74.8867861135035,10.72766508526114],[-74.89026819734377,10.731354856089528],[-74.88928593359806,10.732878595104134],[-74.89167933746742,10.735309422608042],[-74.89189079100382,10.738045988217396],[-74.89492076354138,10.73827372422497],[-74.8921995428653,10.741751913160806],[-74.89435670508628,10.74253937759775],[-74.89603055212487,10.74573035723871],[-74.89595658214941,10.754928003931356],[-74.89294834075687,10.76625056672118],[-74.88317106642475,10.764446717082429],[-74.88343900243297,10.770524045782993],[-74.88490760239544,10.772447392463869],[-74.88054291570367,10.781471773094252],[-74.88667571774161,10.784113059008304],[-74.88157589833034,10.79381946550956],[-74.87902166278745,10.792040918807112],[-74.87665931816905,10.795365110682765],[-74.88075259327076,10.79797947311751],[-74.88513802116412,10.797994707036208],[-74.8843619567087,10.804598661564027],[-74.87671779939235,10.807545951925375],[-74.88021485006357,10.809141649870577],[-74.8793901337507,10.813043449633055],[-74.8823391528098,10.813125096648626],[-74.86663118300561,10.836821744192951],[-74.86976150993682,10.83911223047069],[-74.87151857510669,10.843509411302506],[-74.87182400769319,10.85310431388367],[-74.88070982268344,10.852965842497682],[-74.89120677422062,10.849828510097684],[-74.89535980615337,10.852657829386702],[-74.89951462393688,10.843643057493935],[-74.90197583983041,10.846167896942955],[-74.90213261022052,10.849174382039644],[-74.90521617804458,10.849494681535106],[-74.91237974656539,10.844906622865437],[-74.9144604612574,10.847589271871989],[-74.92089812904489,10.848445520640933],[-74.9201254458482,10.850354325941437],[-74.92463063174536,10.85635661247755],[-74.93250491587791,10.853425936066332],[-74.9370900239876,10.85748716701562],[-74.94481372802068,10.858419993367333]]]}},{"type":"Feature","properties":{"nombre":"CAMPO DE LA CRUZ","color":"#e76f51"},"geometry":{"type":"Polygon","coordinates":[[[-74.8065330909974,10.482935797270098],[-74.81532858128416,10.493585903310517],[-74.82043362709375,10.494095285462077],[-74.82467613841531,10.484622914900564],[-74.82749355518362,10.483387608003401],[-74.83001927909771,10.47615524288336],[-74.83857267251709,10.462733266541528],[-74.84290711023829,10.461457166122441],[-74.84608422681939,10.45665580811138],[-74.8483232623937,10.445355140578382],[-74.85264060517505,10.446377726099628],[-74.85077561640695,10.438471392811298],[-74.85330424008278,10.427134861115986],[-74.85826681847819,10.428559882563965],[-74.8623667995035,10.432331976806298],[-74.86740058465655,10.425451806993593],[-74.87148943375888,10.424220311940363],[-74.87328230128439,10.421935820119465],[-74.87826236987839,10.422818231724055],[-74.88227685733979,10.41802583750057],[-74.89018052536531,10.417397924577502],[-74.89192173706705,10.408768984478263],[-74.89902566194458,10.412531719764011],[-74.90271585489346,10.416991935598809],[-74.90675727923698,10.416754361663623],[-74.90692327802003,10.4155467021093],[-74.91889381157621,10.410994507325531],[-74.92182244875985,10.411297532793037],[-74.92469290924906,10.404473456005352],[-74.92104753414799,10.402593952138064],[-74.92413302346844,10.398335956321302],[-74.92704264511414,10.399470097971903],[-74.92599549785206,10.400943032053188],[-74.92772743624512,10.406117089414046],[-74.93286829608846,10.411767364684069],[-74.9412187744582,10.410829879854255],[-74.94578372077964,10.402828075114067],[-74.95039349842362,10.400071349426973],[-74.9483435043177,10.395665296600704],[-74.95416841957181,10.385262691211535],[-74.95826282385582,10.382897302851179],[-74.96068085683534,10.384051188088147],[-74.96278769543412,10.381832424571018],[-74.96254248500595,10.37932613897301],[-74.95480900011607,10.378999967957432],[-74.94594702102354,10.376148247420641],[-74.9401950831065,10.376951010608977],[-74.93493622685564,10.362009360985153],[-74.93264684699788,10.359530763838682],[-74.92346790274725,10.362940438125555],[-74.92342876674358,10.360544017176286],[-74.92143378905891,10.361325362294226],[-74.91951771669387,10.360035201182262],[-74.9269237827307,10.349096337297727],[-74.92977837987029,10.34994030774081],[-74.93353456395828,10.348700060771753],[-74.93645417217498,10.343903269539076],[-74.93562127939637,10.342970836815176],[-74.91732324294756,10.338566134085871],[-74.91541318749829,10.340747186134617],[-74.91768863179104,10.344196179599505],[-74.91510022253813,10.347941389209037],[-74.91381003338098,10.346962968883698],[-74.9123213668517,10.348591418413793],[-74.90424070735904,10.34902426793742],[-74.90392825893016,10.353146111394121],[-74.89985358075145,10.352606826980772],[-74.89749631520766,10.354001826631873],[-74.89535697017202,10.351558420270921],[-74.89602459629452,10.347137354275619],[-74.89430405752242,10.346633376923286],[-74.89380439390015,10.351278411958376],[-74.88563751500482,10.353168041918146],[-74.88684144523343,10.350511606897442],[-74.88236053540852,10.34822198639534],[-74.88138195565377,10.346040706142496],[-74.87462293713295,10.344799244562237],[-74.86841791863098,10.3406225341159],[-74.86122790101325,10.352653582190687],[-74.86260728658989,10.363851360646775],[-74.86589043581559,10.37309292509325],[-74.86347472947266,10.382986556728888],[-74.85973873861394,10.39046722605111],[-74.8491026110898,10.40153304629578],[-74.83823187685111,10.409067773807074],[-74.83230441172081,10.41127494546807],[-74.82717733023729,10.411198188309745],[-74.81487593907713,10.431712732155788],[-74.81223024156358,10.442226149564398],[-74.80997106486228,10.475273210658488],[-74.8065330909974,10.482935797270098]]]}},{"type":"Feature","properties":{"nombre":"CANDELARIA","color":"#6a4c93"},"geometry":{"type":"Polygon","coordinates":[[[-74.85869873206006,10.561393177800186],[-74.86481387142288,10.566081559599185],[-74.86875446346902,10.561816017595818],[-74.86537167311204,10.556692617909885],[-74.87769450526143,10.558594212980175],[-74.88254683342201,10.55791362790323],[-74.88149381477123,10.555509497486863],[-74.89445365845827,10.554591318182808],[-74.89586834063907,10.553975755317271],[-74.89186806901704,10.546412676069254],[-74.90074042275278,10.548981530649897],[-74.9008859031164,10.547182103777741],[-74.90824209558696,10.546332282940305],[-74.9116756344693,10.548282895989574],[-74.91753067113318,10.547759363612384],[-74.92324128834377,10.539054002357382],[-74.92255742696912,10.534122707351004],[-74.91915907150322,10.53144254581333],[-74.91601089684393,10.53119877574376],[-74.91820030499036,10.528899937306747],[-74.91957834758567,10.523557358523867],[-74.91028938127228,10.51992406009635],[-74.91089337253673,10.513889628736468],[-74.91441703130667,10.506164313486073],[-74.91493972413957,10.499206274985056],[-74.91863473924491,10.492733737204105],[-74.9165418865168,10.490296699183203],[-74.91587978233832,10.478721622191292],[-74.91398358070737,10.475598257037845],[-74.91734268428694,10.46227850877823],[-74.929423764522,10.466612612656455],[-74.93031960674415,10.444977211342957],[-74.93240835686635,10.44225269421084],[-74.9268294847787,10.442157623074241],[-74.92516593782317,10.439911595568676],[-74.92629628614853,10.436210431269208],[-74.9209524780179,10.435060974286525],[-74.91768633390055,10.428396523327901],[-74.9200272626826,10.41822541000695],[-74.91632941339255,10.419375817949556],[-74.91684209719654,10.412218070252237],[-74.90692327802003,10.4155467021093],[-74.90675727923698,10.416754361663623],[-74.90271585489346,10.416991935598809],[-74.89902566194458,10.412531719764011],[-74.89192173706705,10.408768984478263],[-74.89018052536531,10.417397924577502],[-74.88227685733979,10.41802583750057],[-74.87826236987839,10.422818231724055],[-74.87328230128439,10.421935820119465],[-74.87148943375888,10.424220311940363],[-74.86740058465655,10.425451806993593],[-74.8623667995035,10.432331976806298],[-74.85826681847819,10.428559882563965],[-74.85330424008278,10.427134861115986],[-74.85077561640695,10.438471392811298],[-74.85264060517505,10.446377726099628],[-74.8483232623937,10.445355140578382],[-74.84608422681939,10.45665580811138],[-74.84290711023829,10.461457166122441],[-74.83857267251709,10.462733266541528],[-74.83001927909771,10.47615524288336],[-74.82749355518362,10.483387608003401],[-74.82467613841531,10.484622914900564],[-74.81921009921889,10.496050077292708],[-74.82019109903504,10.497367483147672],[-74.81890563681291,10.496773263615411],[-74.81780457266748,10.499251759237076],[-74.81808087648258,10.501296630490419],[-74.82390469219877,10.505580376960841],[-74.82248884580137,10.509302284560635],[-74.83077517457836,10.516829013949595],[-74.83862756856409,10.530908895306801],[-74.84007226615347,10.535365404855972],[-74.83594353005591,10.540306793887817],[-74.83588403732959,10.54791571841184],[-74.84092043298686,10.549319152955785],[-74.84562087220259,10.557090823655841],[-74.85636714935023,10.56472476942612],[-74.85869873206006,10.561393177800186]]]}},{"type":"Feature","properties":{"nombre":"GALAPA","color":"#9333ea"},"geometry":{"type":"Polygon","coordinates":[[[-74.89260369042003,10.950305990146852],[-74.90265679964669,10.950083430346469],[-74.90274190873167,10.949041319044627],[-74.90783144063629,10.950510147717974],[-74.92278039331421,10.942330861693694],[-74.92824356778318,10.895684764626175],[-74.93284338939888,10.88915808656802],[-74.9319624196846,10.886538507231423],[-74.9299854954422,10.886295640208461],[-74.92982314561584,10.87738913812363],[-74.93525777970993,10.872368747206373],[-74.93411077122929,10.868951801559914],[-74.94232436611266,10.864842289530648],[-74.94195687970297,10.862759230132513],[-74.94499632228026,10.859545786650386],[-74.94481372802068,10.858419993367333],[-74.93695685503494,10.8574262601989],[-74.93250491587791,10.853425936066332],[-74.92463063174536,10.85635661247755],[-74.9201254458482,10.850354325941437],[-74.92089812904489,10.848445520640933],[-74.9144604612574,10.847589271871989],[-74.91237974656539,10.844906622865437],[-74.90378366879698,10.849491257492131],[-74.90192938076054,10.849049384460798],[-74.90197583983041,10.846167896942955],[-74.89951462393688,10.843643057493935],[-74.89535980615337,10.852657829386702],[-74.89120677422062,10.849828510097684],[-74.88070982268344,10.852965842497682],[-74.87182400769319,10.85310431388367],[-74.86698886969384,10.860913462253544],[-74.86240992223041,10.860979083846509],[-74.86120539641877,10.862991225340817],[-74.8413427588497,10.869566989287717],[-74.83885378681052,10.871805912769155],[-74.84275778957681,10.873208668857455],[-74.84263691586544,10.87560668222823],[-74.84495381291701,10.877950729627408],[-74.83882019520877,10.8854283381554],[-74.8360763010549,10.900821667299505],[-74.82825682134118,10.908275225652613],[-74.82667494741466,10.913916096514894],[-74.83215554470856,10.915693475203419],[-74.8403448868759,10.921758233168168],[-74.83852502407778,10.92600701816932],[-74.8436997486107,10.928834793597236],[-74.85024735671423,10.938830756752859],[-74.85824361409608,10.936608160852117],[-74.86949576312297,10.939240724545908],[-74.87763382675892,10.945174119751593],[-74.89231066087267,10.945624930878566],[-74.89260369042003,10.950305990146852]]]}},{"type":"Feature","properties":{"nombre":"JUAN DE ACOSTA","color":"#f4a261"},"geometry":{"type":"Polygon","coordinates":[[[-75.07435560067242,10.886785345485253],[-75.0812228024046,10.886629031522745],[-75.08630758311969,10.876909357777418],[-75.10074676433177,10.87336204246941],[-75.1004652484914,10.86929886165797],[-75.1038962406499,10.86642999800876],[-75.12371503863648,10.861854720762965],[-75.13080475845442,10.862783948136249],[-75.13059725391197,10.857949755634673],[-75.14410377634832,10.851247414961085],[-75.1508446785448,10.835589126607145],[-75.1571817197491,10.831485611770756],[-75.16321051035189,10.830020262519641],[-75.18059243589082,10.829704666099229],[-75.19243940528136,10.818799694190496],[-75.2076861261198,10.818048449492405],[-75.21267515361212,10.813816648590963],[-75.21669340142131,10.804783526652855],[-75.2050803802802,10.80407721530652],[-75.20070131784894,10.80660094193854],[-75.19966698325774,10.80265919795539],[-75.19283071591069,10.80239178954259],[-75.19183840181357,10.804424868599384],[-75.18246594697601,10.801750680944469],[-75.16909140412291,10.804416329704946],[-75.16888541683501,10.806595882347175],[-75.15534292046482,10.806062654413848],[-75.1552389656235,10.804310156910766],[-75.15201385744665,10.80431059545908],[-75.14718185546599,10.811523830074462],[-75.14219863019207,10.811930628737137],[-75.13475610872439,10.810359676779694],[-75.13174650728251,10.80761928928785],[-75.12490696916952,10.808239902680537],[-75.12054347544046,10.797886124757692],[-75.11613298994054,10.796226343404212],[-75.11647516002891,10.790396508901004],[-75.1049247640395,10.787375509456165],[-75.09919712914416,10.788260255573045],[-75.09180578020664,10.784561304594124],[-75.09051025146346,10.785435894972483],[-75.08086811698769,10.775982729025289],[-75.07720266543836,10.776728568764158],[-75.07719159729575,10.772532090666294],[-75.0721756670573,10.772896299636907],[-75.06927368288812,10.769898237846734],[-75.06300032325431,10.768315449051366],[-75.0632678226813,10.766971987945562],[-75.0569832323098,10.767855695328903],[-75.0555579347373,10.771613800868945],[-75.05276268659357,10.771141403475905],[-75.04874373809847,10.77399239028701],[-75.04099200393358,10.773592490694586],[-75.03837342386353,10.770814775838724],[-75.0236172990529,10.76858631978878],[-75.01961659803617,10.774094426133422],[-75.02076586847468,10.775873198080971],[-75.0200621983497,10.77723437301976],[-75.0203642344061,10.776220437458674],[-75.00305891270303,10.775835136955356],[-75.0026864388469,10.780459052838452],[-75.00100448091962,10.780477760128784],[-74.999199142083,10.78439769321488],[-75.00160699086213,10.790736621770082],[-74.99408427050082,10.790302372821134],[-74.99258748140475,10.785004631631093],[-74.98494638914016,10.79026902659156],[-74.99383285720563,10.795001433658536],[-74.9937884912104,10.79716894528762],[-74.99080263852967,10.799213376556944],[-74.9907149135506,10.803304838353949],[-74.99346661496261,10.806541650122833],[-74.99553523473764,10.806152344508577],[-74.99098398772428,10.810128840802568],[-74.99201755245927,10.81382893373125],[-74.99413774631138,10.812902361151883],[-74.99437884065891,10.815365636426186],[-74.99844902905782,10.815759679815892],[-74.9959458780102,10.829089623975898],[-74.99896432875593,10.83102736201804],[-75.00335966416858,10.830703680257423],[-75.00780597448201,10.834039510997462],[-75.00699553150066,10.844620147423885],[-75.01078029099783,10.846434404319371],[-75.00957448868017,10.852341593392977],[-75.01378081855702,10.852784432912818],[-75.01792357016964,10.855796466913624],[-75.0265367006571,10.85487755150281],[-75.02820206041288,10.860083777766718],[-75.03301699350483,10.86083912338684],[-75.03622185635011,10.864331370671014],[-75.03736814617854,10.86242315841764],[-75.03990260261548,10.86667109738921],[-75.043199943426,10.866930002147557],[-75.04221955087102,10.869807330972385],[-75.04403329254879,10.871387201214432],[-75.04891010968235,10.871801073063798],[-75.04919178272789,10.879297227311715],[-75.05238322653946,10.878853372047551],[-75.05263006740986,10.880760581166625],[-75.05352668936966,10.877121348341333],[-75.05514616407906,10.877707163981336],[-75.05563019072717,10.886158716518446],[-75.05949152261917,10.88584988198291],[-75.06398031695734,10.877434139656163],[-75.06694888245872,10.881744555774182],[-75.07435560067242,10.886785345485253]]]}},{"type":"Feature","properties":{"nombre":"LURUACO","color":"#e63946"},"geometry":{"type":"Polygon","coordinates":[[[-75.21331197021536,10.6832187217499],[-75.2244183990284,10.7008236676724],[-75.227488616989,10.7021111769691],[-75.23468171403152,10.7012906581779],[-75.24326707400029,10.695137844439765],[-75.2470875172755,10.695721241202424],[-75.24196644641955,10.688994896627666],[-75.24425010850055,10.664714989248354],[-75.24195902453866,10.654441823162896],[-75.22862109611823,10.644375044073234],[-75.22788116010692,10.63822801013923],[-75.22362393168606,10.630810391993705],[-75.22945953060382,10.618901789976853],[-75.22641230592123,10.609353581331568],[-75.22827617718511,10.599102282860926],[-75.22687827283887,10.587639464802576],[-75.22939449796715,10.580836330499428],[-75.23704498391469,10.569719308761568],[-75.22899126399905,10.559166839829066],[-75.17132484409133,10.570350850171428],[-75.16862780336771,10.572726670855284],[-75.16602473450767,10.57952475209554],[-75.16367759926533,10.581084635365912],[-75.14421446226605,10.576844827331792],[-75.14065639532576,10.585339539321868],[-75.13268105162204,10.580545213797263],[-75.12940559467015,10.589671065314903],[-75.12383609829911,10.59609988494486],[-75.12393979173066,10.600125361001442],[-75.11640005458294,10.603775511173245],[-75.10545066026471,10.593656604581888],[-75.09592319483667,10.593006509756359],[-75.08932465854473,10.598592907599961],[-75.08329596316338,10.607540912634818],[-75.06725442823293,10.601176748556771],[-75.06015192269355,10.594935172477893],[-75.05642016020488,10.61180852468528],[-75.05701772132852,10.615083556273351],[-75.0536680662291,10.623335182708816],[-75.05410151862505,10.627487394690602],[-75.05570187808348,10.627416406353467],[-75.05468630750195,10.635957639929885],[-75.06289914241061,10.645678636153717],[-75.06251457363749,10.653905047994158],[-75.0585115908999,10.657619265027758],[-75.0584467334347,10.661203033556006],[-75.05563202688361,10.665207865923572],[-75.05719604409893,10.67048597372354],[-75.0620276463293,10.673201871862881],[-75.0617266451321,10.681100623576391],[-75.06332236209715,10.684645754101595],[-75.09811603993738,10.686120985989811],[-75.10049637870925,10.686896843267002],[-75.10316947573727,10.691389763859167],[-75.11296003974573,10.691807717911308],[-75.15502995191139,10.685177984520253],[-75.1692757905215,10.690363898916182],[-75.17725105517349,10.687111775730886],[-75.1810642463494,10.688215371671184],[-75.1837936192367,10.686150337858736],[-75.19513519375346,10.685402600960282],[-75.20306668529828,10.675021421660132],[-75.2062227498607,10.6736512599973],[-75.21140227768545,10.677447240123398],[-75.21331197021536,10.6832187217499]]]}},{"type":"Feature","properties":{"nombre":"MALAMBO","color":"#16a34a"},"geometry":{"type":"Polygon","coordinates":[[[-74.8219958647465,10.891264387515495],[-74.83882069018051,10.885428310808736],[-74.84133696920769,10.882940592953208],[-74.845103522549,10.877358399599377],[-74.84273415130842,10.875779837499714],[-74.84264256447194,10.873095352688397],[-74.83885378681052,10.871805912769155],[-74.84226648118499,10.868859110509648],[-74.86120539641877,10.862991225340817],[-74.86240992223041,10.860979083846509],[-74.86684993355706,10.860985573486184],[-74.86961383948052,10.858520926816546],[-74.87198415664709,10.852431234340948],[-74.8715993138878,10.84395439283186],[-74.86976150993682,10.83911223047069],[-74.86663118300561,10.836821744192951],[-74.8823391528098,10.813125096648626],[-74.80320674178971,10.812444174753029],[-74.76786467480787,10.825455765236258],[-74.75468924533413,10.822994540472008],[-74.7529612110193,10.826942714942824],[-74.75575500209564,10.83035384017452],[-74.75524566182112,10.833262229728588],[-74.74072604635681,10.834452092589505],[-74.74136587860446,10.845151343691004],[-74.73732718513939,10.865359333589558],[-74.73810402843417,10.87600112351095],[-74.7418210289078,10.883981951672176],[-74.75739050364798,10.885615820031395],[-74.76513220902105,10.89058645057236],[-74.76979120805441,10.889931101885855],[-74.76948575929823,10.880786276882489],[-74.7774542874839,10.883296484815807],[-74.77880109296183,10.879566292520408],[-74.77541846789485,10.879132827859186],[-74.77587056482453,10.877488025568404],[-74.77956467802132,10.876658188673762],[-74.78015022687298,10.874496775908021],[-74.78463598849874,10.878428286105615],[-74.78700843736746,10.877688551862192],[-74.78796564620161,10.875125206106555],[-74.78974462038293,10.875709696222149],[-74.78949224768702,10.877448038328529],[-74.7916361606559,10.87730888308008],[-74.79128469749593,10.88009217860694],[-74.79534488674742,10.881459967337733],[-74.79655914490684,10.877493511815898],[-74.80044035471944,10.876285437507754],[-74.79906355269756,10.8797603202456],[-74.80560009715005,10.886013129170882],[-74.8075203835121,10.88060016902922],[-74.81119922714568,10.880098239979699],[-74.81391105413886,10.876620902550917],[-74.82486753077481,10.879014757277009],[-74.81822497433899,10.890384483606967],[-74.8219958647465,10.891264387515495]]]}},{"type":"Feature","properties":{"nombre":"MANAT\u00cd","color":"#2b9348"},"geometry":{"type":"Polygon","coordinates":[[[-74.92478681463729,10.53468109440313],[-74.96017884232197,10.543756509745881],[-74.95888069319308,10.535966927212993],[-74.96124109565385,10.532282342131628],[-74.97333177079449,10.531624328655013],[-74.97975524340384,10.52337395024273],[-74.98832553593034,10.519665152303132],[-74.99233201401267,10.520056099083412],[-74.99623625662916,10.523188037961884],[-74.9985555387078,10.516840575361877],[-75.00427411589014,10.51726548655083],[-75.01014822019425,10.521413071125176],[-75.02708116505923,10.520754281071646],[-75.02256070510731,10.484786519264574],[-75.02543564279989,10.482637656643991],[-75.03657519339576,10.480681784585672],[-75.04104519138492,10.477428815651205],[-75.04716592994693,10.469343681690443],[-75.04582772763447,10.465946183103132],[-75.05808501151421,10.418340399130557],[-75.06078426478835,10.414898068414015],[-75.06391354518226,10.414256772744103],[-75.06466300064064,10.411948218452475],[-75.07286382327733,10.4108929132874],[-75.0742789932433,10.409353653581405],[-75.06765541281956,10.402504819607115],[-75.05298357783036,10.381902335680403],[-75.03343861958007,10.368850998588295],[-75.03119618208578,10.370052176008848],[-75.02369588187733,10.369340265547834],[-75.0206404618644,10.371129667678352],[-75.02338906319036,10.37366731274777],[-75.02310391366467,10.37710759376946],[-75.0204340110458,10.37856294940714],[-75.00986467865293,10.37670279301204],[-75.00401832061299,10.378438942447024],[-75.0042725088041,10.381653036940222],[-75.00244257229838,10.384220427059015],[-75.00532586162817,10.3876130865531],[-74.99634021236879,10.392391770890965],[-74.9930491750366,10.392586220902944],[-74.99339496264061,10.394810302285695],[-74.97170778294911,10.394616837957955],[-74.97020773117194,10.393961790182594],[-74.97209319793525,10.390161214166799],[-74.97069629341392,10.389609827407913],[-74.96933582366222,10.38387879986502],[-74.95776781530336,10.383081721015891],[-74.95416841957181,10.385262691211535],[-74.95310957354978,10.388783948451875],[-74.94903146739996,10.393056690629498],[-74.9483435043177,10.395665296600704],[-74.95039349842362,10.400071349426973],[-74.94578372077964,10.402828075114067],[-74.94046874407803,10.411306830129542],[-74.93286829608846,10.411767364684069],[-74.92772743624512,10.406117089414046],[-74.92599549785206,10.400943032053188],[-74.92704264511414,10.399470097971903],[-74.92413302346844,10.398335956321302],[-74.92185919793981,10.400122932368804],[-74.92104753414799,10.402593952138064],[-74.92469290924906,10.404473456005352],[-74.92182244875985,10.411297532793037],[-74.91654699523583,10.411919118722823],[-74.91632941339255,10.419375817949556],[-74.91965713253101,10.417510914628576],[-74.9200597772043,10.418669042619971],[-74.91768633390055,10.428396523327901],[-74.9209524780179,10.435060974286525],[-74.92629628614853,10.436210431269208],[-74.92516593782317,10.439911595568676],[-74.92678789367935,10.442122959626188],[-74.9323944949632,10.442399067395044],[-74.93031960674415,10.444977211342957],[-74.929423764522,10.466612612656455],[-74.91881168130475,10.462509114288062],[-74.91734268428694,10.46227850877823],[-74.9163004885387,10.464243135484638],[-74.91398358070737,10.475598257037845],[-74.91587978233832,10.478721622191292],[-74.9165418865168,10.490296699183203],[-74.91863473924491,10.492733737204105],[-74.91493972413957,10.499206274985056],[-74.91441703130667,10.506164313486073],[-74.91089337253673,10.513889628736468],[-74.91028938127228,10.51992406009635],[-74.91957834758567,10.523557358523867],[-74.91820030499036,10.528899937306747],[-74.91601089684393,10.53119877574376],[-74.91915907150322,10.53144254581333],[-74.92200353564641,10.534034546134434],[-74.92520689920349,10.533539751955255],[-74.92478681463729,10.53468109440313]]]}},{"type":"Feature","properties":{"nombre":"PALMAR DE VARELA","color":"#bc6c25"},"geometry":{"type":"Polygon","coordinates":[[[-74.73872969874134,10.75028591731585],[-74.74558722112633,10.746714434217902],[-74.75205738097766,10.748060450550385],[-74.75517030215194,10.746637737995098],[-74.75796120065304,10.748667669566162],[-74.76051915432289,10.742020833436408],[-74.76525007517284,10.743361804743794],[-74.76748025246015,10.736933704707425],[-74.77722067789932,10.735802057454682],[-74.77821579384182,10.732399326907577],[-74.78447396655746,10.733140833173428],[-74.7848279315255,10.731321712516449],[-74.78915329536402,10.732681489224102],[-74.79031176994093,10.727719797705806],[-74.791601679722,10.727905761161535],[-74.79412240540987,10.723460450753043],[-74.79558574124476,10.716183827597341],[-74.79763808534346,10.715683184287188],[-74.80078550002801,10.705606550750625],[-74.81027563865938,10.706075869454871],[-74.81276214033153,10.701234969995989],[-74.8137569436603,10.701617834094616],[-74.81468730903713,10.697564292209092],[-74.8176972338725,10.698168189459718],[-74.81693725914215,10.700467967502506],[-74.82371037582303,10.702112225604747],[-74.82431934734738,10.698497771456179],[-74.82783602890254,10.69762593666233],[-74.82840407048761,10.69377248546436],[-74.83229646881708,10.69279343553499],[-74.83379290218029,10.6896550123509],[-74.83513805924967,10.69051515189301],[-74.83719085609927,10.685511570602],[-74.8399751313218,10.685941178696948],[-74.83897232759709,10.682310243471495],[-74.8372550865404,10.68156868431101],[-74.83707775730667,10.679415402988681],[-74.83895472510909,10.678705707859127],[-74.83652611716207,10.675141543507427],[-74.83735564305499,10.671995372524538],[-74.83581822136199,10.671190088572642],[-74.83159632457958,10.673221888762825],[-74.82768469511652,10.669763510344987],[-74.8247807562133,10.669793109207887],[-74.82344983115297,10.66734315243143],[-74.82241663293063,10.669832690587153],[-74.81938178343938,10.667483983166454],[-74.82026489743225,10.665397077556392],[-74.81734209121315,10.66355158818768],[-74.81740346590998,10.661056706191864],[-74.81648676390863,10.661783409182673],[-74.81455311331008,10.65935856665391],[-74.81252586814044,10.660142490509584],[-74.81138227235957,10.65715642904259],[-74.80025082007596,10.65659098194649],[-74.7955179480852,10.659777190669605],[-74.78197600238228,10.653378636321563],[-74.7803491030971,10.656694570520562],[-74.77858232444405,10.651514495676693],[-74.7758722320977,10.65232402250707],[-74.77350467725064,10.650572209711878],[-74.77177779996589,10.652041672457745],[-74.77060426872649,10.650462317343958],[-74.76641804763727,10.650681800991942],[-74.76527493335338,10.649016486899502],[-74.75881197709234,10.652598656327577],[-74.75669358705731,10.651502128896873],[-74.75409375213229,10.652544836127351],[-74.75504997641289,10.651289035818294],[-74.75385070754227,10.650361669156876],[-74.7464170497515,10.651145415768339],[-74.73633553759221,10.660023110480752],[-74.72363896496212,10.666993423976809],[-74.7228699235356,10.677056102297271],[-74.7251875760703,10.688615019642931],[-74.7259859367111,10.736007395874742],[-74.7277464774628,10.749399530199987],[-74.7329152012496,10.748658040900741],[-74.73872969874134,10.75028591731585]]]}},{"type":"Feature","properties":{"nombre":"PIOJ\u00d3","color":"#8338ec"},"geometry":{"type":"Polygon","coordinates":[[[-75.12490696916952,10.808239902680537],[-75.13196382681772,10.807700205403114],[-75.13495058949182,10.810422716161659],[-75.1463195769978,10.81188164227663],[-75.15201385744665,10.80431059545908],[-75.1552389656235,10.804310156910766],[-75.15534292046482,10.806062654413848],[-75.16888541683501,10.806595882347175],[-75.16909140412291,10.804416329704946],[-75.18246594697601,10.801750680944469],[-75.19183840181357,10.804424868599384],[-75.19283071591069,10.80239178954259],[-75.19966698325774,10.80265919795539],[-75.20070131784894,10.80660094193854],[-75.2050803802802,10.80407721530652],[-75.21663850806924,10.804691026619858],[-75.21708335020467,10.801082623350888],[-75.22220806462741,10.796604343166617],[-75.22168148119103,10.79281227287026],[-75.22850721399473,10.788145422113418],[-75.23027883456713,10.783821127543968],[-75.22950881397696,10.782035059652051],[-75.21988959372747,10.777202574077368],[-75.2214083852598,10.772405762137437],[-75.22693907980047,10.767844518492183],[-75.228133906502,10.759782050290875],[-75.23031522352267,10.759397154139807],[-75.23035962904379,10.756450722932891],[-75.24054303800408,10.74721649207219],[-75.24016090725864,10.743845034168272],[-75.24297451067856,10.740231308798633],[-75.2443913470194,10.731834774655397],[-75.24952656095118,10.722965118784813],[-75.2480839672162,10.721884844065043],[-75.24874582345966,10.718913982643587],[-75.24457166584638,10.716690196696465],[-75.24928584479439,10.703965380695946],[-75.24687908836665,10.701658194272746],[-75.2474293379192,10.695927500107516],[-75.24326707400029,10.695137844439765],[-75.23468171403152,10.7012906581779],[-75.22638819783394,10.702005067026574],[-75.21456223644464,10.685375932544552],[-75.21140227768545,10.677447240123398],[-75.2062227498607,10.6736512599973],[-75.20306668529828,10.675021421660132],[-75.19513519375346,10.685402600960282],[-75.1837936192367,10.686150337858736],[-75.1810642463494,10.688215371671184],[-75.17725105517349,10.687111775730886],[-75.1692757905215,10.690363898916182],[-75.15502995191139,10.685177984520253],[-75.11296003974573,10.691807717911308],[-75.10316947573727,10.691389763859167],[-75.10049637870925,10.686896843267002],[-75.09811603993738,10.686120985989811],[-75.0556056999576,10.684344335058304],[-75.05688251859004,10.690042256140307],[-75.06241989749473,10.694963818947974],[-75.05657845503605,10.69650806451257],[-75.05360208766642,10.692582253348244],[-75.05053573515647,10.698614990524609],[-75.0455529707183,10.701682559198819],[-75.04179946360986,10.707908180702418],[-75.04248687512653,10.715834052153054],[-75.03944607070326,10.722054849594207],[-75.02958153402442,10.727752372386885],[-75.03054481277495,10.741784253329907],[-75.0332015972957,10.741194259827088],[-75.03368347337705,10.743272981159535],[-75.03175487400536,10.743290632556514],[-75.03177381857641,10.748782817260725],[-75.03007399315813,10.75128327235731],[-75.03125317839391,10.75615955981838],[-75.04638758017742,10.758164548912337],[-75.04436985535314,10.766965969291839],[-75.04102913579585,10.770319105912769],[-75.03837342386353,10.770814775838724],[-75.04099200393358,10.773592490694586],[-75.04874373809847,10.77399239028701],[-75.05276268659357,10.771141403475905],[-75.0555579347373,10.771613800868945],[-75.0569832323098,10.767855695328903],[-75.0632678226813,10.766971987945562],[-75.06300032325431,10.768315449051366],[-75.06927368288812,10.769898237846734],[-75.0721756670573,10.772896299636907],[-75.07719159729575,10.772532090666294],[-75.07720266543836,10.776728568764158],[-75.08086811698769,10.775982729025289],[-75.09051025146346,10.785435894972483],[-75.09180578020664,10.784561304594124],[-75.09919712914416,10.788260255573045],[-75.1049247640395,10.787375509456165],[-75.11647516002891,10.790396508901004],[-75.11613298994054,10.796226343404212],[-75.12054347544046,10.797886124757692],[-75.12490696916952,10.808239902680537]]]}},{"type":"Feature","properties":{"nombre":"POLONUEVO","color":"#3a86ff"},"geometry":{"type":"Polygon","coordinates":[[[-74.80779212927543,10.81228485804195],[-74.8793901337507,10.813043449633055],[-74.88021485006357,10.809141649870577],[-74.87658712775618,10.80784052248259],[-74.8843619567087,10.804598661564027],[-74.88513802116412,10.797994707036208],[-74.88075259327076,10.79797947311751],[-74.87665931816905,10.795365110682765],[-74.87902166278745,10.792040918807112],[-74.88157589833034,10.79381946550956],[-74.88669430927472,10.783987766042605],[-74.88054291570367,10.781471773094252],[-74.88490760239544,10.772447392463869],[-74.88343900243297,10.770524045782993],[-74.88317106642475,10.764446717082429],[-74.89294834075687,10.76625056672118],[-74.89595658214941,10.754928003931356],[-74.89603055212487,10.74573035723871],[-74.89435670508628,10.74253937759775],[-74.8921995428653,10.741751913160806],[-74.8950152375632,10.738444695794756],[-74.89189079100382,10.738045988217396],[-74.89167933746742,10.735309422608042],[-74.88928593359806,10.732878595104134],[-74.89026819734377,10.731354856089528],[-74.88666873334027,10.72759383523729],[-74.88360335729902,10.730551407618155],[-74.88207280232805,10.727025642042454],[-74.87977745855511,10.728373421289096],[-74.87650391591309,10.726355383469143],[-74.8767415939676,10.724500174719333],[-74.87485851582461,10.725873368809117],[-74.87296959503904,10.721317779628007],[-74.8718618007155,10.723021068642838],[-74.87003163513938,10.721398158445668],[-74.87000792770071,10.717236844495936],[-74.86707409466149,10.718474051107231],[-74.86901481140804,10.71599957016024],[-74.8664534899542,10.715142728134163],[-74.86851318317024,10.714004826065443],[-74.86497420722638,10.714420575844441],[-74.86414695586777,10.712680944376105],[-74.86054092607782,10.711952703797062],[-74.85802839302536,10.713125444140504],[-74.85729812737809,10.707404279884356],[-74.84729682129893,10.708677087708011],[-74.8422982545966,10.707392008060099],[-74.84048026388751,10.719023402744325],[-74.84141263789732,10.720462025941776],[-74.83940600996175,10.725368802385677],[-74.84066997729575,10.726187644276305],[-74.84006118094287,10.728964518373093],[-74.83583834901422,10.733127990468217],[-74.83434637398977,10.742033471889144],[-74.83369132158629,10.743842067856542],[-74.83172212644858,10.743845389843253],[-74.82362777483435,10.765773492471459],[-74.82322545714783,10.77085952951418],[-74.819459343981,10.775656847036203],[-74.81209296102186,10.775749964910611],[-74.81141236322664,10.778364645244533],[-74.808488321824,10.779843648611019],[-74.80755418711624,10.790374448986302],[-74.80917644929794,10.790734081251637],[-74.80887305678546,10.794244467786978],[-74.81670375645709,10.792466638364393],[-74.8170900176562,10.797523022587223],[-74.813548405157,10.805153320903461],[-74.81075519978221,10.808033814951589],[-74.80907390211668,10.807261536417212],[-74.80779212927543,10.81228485804195]]]}},{"type":"Feature","properties":{"nombre":"PONEDERA","color":"#fb5607"},"geometry":{"type":"Polygon","coordinates":[[[-74.87252064939938,10.721046200975225],[-74.8734833056174,10.724493220519319],[-74.87558399345144,10.725771043927763],[-74.84105897386493,10.60128584455138],[-74.84725364646974,10.594242614131899],[-74.84662262669505,10.58827608288956],[-74.85633340683154,10.56456313701058],[-74.84562087220259,10.557090823655841],[-74.84092043298686,10.549319152955785],[-74.83588403732959,10.54791571841184],[-74.83594353005591,10.540306793887817],[-74.84007226615347,10.535365404855972],[-74.83854022536902,10.530679726515194],[-74.83077517457836,10.516829013949595],[-74.82248884580137,10.509302284560635],[-74.82390469219877,10.505580376960841],[-74.81784022500449,10.501045404777686],[-74.82043362709375,10.494095285462077],[-74.81532858128416,10.493585903310517],[-74.8065330909974,10.482935797270098],[-74.8019804893246,10.488176771309622],[-74.79839908954312,10.496174783746694],[-74.78065327265229,10.516829040446325],[-74.76706556317552,10.52813721769942],[-74.74445104183644,10.538210858761431],[-74.73891923967304,10.54229521664377],[-74.73577817068765,10.554050097089982],[-74.73839630878658,10.581049151270326],[-74.73578248799092,10.584348444640394],[-74.7323416098727,10.594967839960853],[-74.72500175057066,10.603615976099505],[-74.72521095652222,10.620378350363294],[-74.73198399774462,10.63126016669251],[-74.7398048500841,10.634469318904536],[-74.74658712598762,10.644913551419888],[-74.7464170497515,10.651145415768339],[-74.75385070754227,10.650361669156876],[-74.75504997641289,10.651289035818294],[-74.75409375213229,10.652544836127351],[-74.75669358705731,10.651502128896873],[-74.75881197709234,10.652598656327577],[-74.76527493335338,10.649016486899502],[-74.76641804763727,10.650681800991942],[-74.77060426872649,10.650462317343958],[-74.77177779996589,10.652041672457745],[-74.77350467725064,10.650572209711878],[-74.7758722320977,10.65232402250707],[-74.77858232444405,10.651514495676693],[-74.7803491030971,10.656694570520562],[-74.78197600238228,10.653378636321563],[-74.7955179480852,10.659777190669605],[-74.80025082007596,10.65659098194649],[-74.801503951931,10.657651929337199],[-74.81116506870701,10.657096475809395],[-74.81252586814044,10.660142490509584],[-74.81455311331008,10.65935856665391],[-74.81648676390863,10.661783409182673],[-74.81740346590998,10.661056706191864],[-74.81734209121315,10.66355158818768],[-74.82026489743225,10.665397077556392],[-74.81938178343938,10.667483983166454],[-74.82241663293063,10.669832690587153],[-74.82344983115297,10.66734315243143],[-74.8247807562133,10.669793109207887],[-74.82768469511652,10.669763510344987],[-74.83159632457958,10.673221888762825],[-74.83640960117813,10.671263220694712],[-74.83764066142665,10.672674923298294],[-74.83652611716207,10.675141543507427],[-74.83895472510909,10.678705707859127],[-74.83707775730667,10.679415402988681],[-74.8372550865404,10.68156868431101],[-74.83897232759709,10.682310243471495],[-74.84005022958125,10.685711039365824],[-74.83711127434825,10.68572956184958],[-74.83968232545494,10.687517624585242],[-74.83848587459939,10.689679924648516],[-74.8417614914514,10.690182601449013],[-74.84087739021003,10.693424965974607],[-74.844387592217,10.693832674209945],[-74.84402401707207,10.697603065826627],[-74.8459880603716,10.698363856938881],[-74.84450091289348,10.69960119622807],[-74.84608562549629,10.699708997376517],[-74.8457243221907,10.70175209672048],[-74.84734420383691,10.701547484465886],[-74.8472887858687,10.703773215795461],[-74.84886633350882,10.702765461359583],[-74.84830598599416,10.707598286388443],[-74.85776750340226,10.70759172988613],[-74.85802839302536,10.713125444140504],[-74.86054092607782,10.711952703797062],[-74.86414695586777,10.712680944376105],[-74.86497420722638,10.714420575844441],[-74.86846134588677,10.713960953680624],[-74.8664534899542,10.715142728134163],[-74.86901481140804,10.71599957016024],[-74.86707409466149,10.718474051107231],[-74.86994436740278,10.717188403121026],[-74.87003163513938,10.721398158445668],[-74.8720330223036,10.723015701375786],[-74.87252064939938,10.721046200975225]]]}},{"type":"Feature","properties":{"nombre":"PUERTO COLOMBIA","color":"#0891b2"},"geometry":{"type":"Polygon","coordinates":[[[-74.87272351863494,11.0479533093153],[-74.8936673109878,11.0432137831487],[-74.92128938397869,11.045503624540247],[-74.92248498862125,11.04010690035792],[-74.92002621434867,11.035032101677256],[-74.92231343465649,11.027984908265141],[-74.93109471359547,11.02137277024604],[-74.94246654876088,11.01847662985133],[-74.94641021124866,11.010515778016474],[-74.95409172680273,11.006685787360164],[-74.95288904163911,11.006010672640066],[-74.95472760286987,10.998669571301926],[-74.95603345145905,10.995069447409831],[-74.95797937394265,10.994605452539059],[-74.95595290581572,10.993616052632444],[-74.96130016437536,10.987577641908937],[-74.97144547937772,10.981789981606644],[-74.98129026659504,10.979815889037942],[-74.9780744398117,10.975435935619185],[-74.97310409997223,10.978927631043495],[-74.95820076554106,10.980759862563252],[-74.95561914665336,10.977990559400277],[-74.95636353741018,10.975371633914376],[-74.95025920118695,10.970929860619371],[-74.94714757089176,10.971471850548621],[-74.94694776580963,10.975809271319351],[-74.94189601884247,10.973757518436226],[-74.93745549457779,10.974328577245071],[-74.93234593024233,10.977802498299019],[-74.93014754523125,10.974804139940938],[-74.92301085160878,10.97417740230239],[-74.919491199325,10.972217518198505],[-74.92419906311655,10.966768381647515],[-74.92848877012652,10.966892062439637],[-74.92847652698751,10.957342873336135],[-74.93112922956362,10.9524928083203],[-74.92491585852616,10.950836863745478],[-74.92418132588129,10.95274683170454],[-74.92042788345154,10.949906719966608],[-74.91839993130775,10.945286750496257],[-74.91797181041302,10.954091205367092],[-74.91486513702155,10.957344327651978],[-74.90799801164617,10.95787732644279],[-74.90725324090198,10.960917088344745],[-74.90022662683444,10.960680691133652],[-74.8990339740559,10.96261301844291],[-74.90930813352114,10.971441498334565],[-74.90873425288673,10.9724953004772],[-74.90531523347433,10.971627748543836],[-74.89385429531418,10.983014109290755],[-74.88714550429586,10.979919144653232],[-74.88299841471871,10.974411553138195],[-74.8821956954522,10.977461407463394],[-74.88384821828255,10.978912330534706],[-74.88214002865067,10.979335315674474],[-74.88321157774912,10.980723604549516],[-74.87979317547934,10.981836230138155],[-74.87600894508986,10.986909931539412],[-74.87392948354768,10.98750280211846],[-74.87437267996953,10.990338313637135],[-74.87651395189145,10.990686931959548],[-74.8770059079686,10.9939581150934],[-74.87522433316451,10.995422480726164],[-74.8833323230014,11.001973480482405],[-74.87461627882006,11.011013392067866],[-74.87162431400215,11.009010660796589],[-74.86628545199547,11.015602934471357],[-74.85388108336102,11.01714054168583],[-74.84258951086959,11.012754761275815],[-74.83983560139862,11.013312887482991],[-74.83234664960715,11.030658724042707],[-74.8270285548532,11.037511572942975],[-74.82753916714216,11.038776796688346],[-74.84004299634657,11.032492640640474],[-74.8500105581104,11.029851438782972],[-74.85937270478007,11.031404715442449],[-74.86082149599221,11.02829164325114],[-74.86472391772361,11.024842125027236],[-74.86552924120615,11.026019420507161],[-74.86690451339709,11.025021264691825],[-74.86999735093656,11.021298298791924],[-74.87159815416275,11.022424380043303],[-74.86818777295014,11.026624953391288],[-74.87122955743537,11.02746507514446],[-74.87342156440793,11.031534162875975],[-74.86986023478654,11.046310177313801],[-74.87201275451416,11.047046674816402],[-74.87277143656883,11.045295160514245],[-74.87272351863494,11.0479533093153]]]}},{"type":"Feature","properties":{"nombre":"REPEL\u00d3N","color":"#ef476f"},"geometry":{"type":"Polygon","coordinates":[[[-75.05126481143432,10.590042007591288],[-75.06725442823293,10.601176748556771],[-75.08329596316338,10.607540912634818],[-75.08932465854473,10.598592907599961],[-75.09592319483667,10.593006509756359],[-75.10545066026471,10.593656604581888],[-75.11640005458294,10.603775511173245],[-75.12393979173066,10.600125361001442],[-75.12383609829911,10.59609988494486],[-75.12940559467015,10.589671065314903],[-75.13268105162204,10.580545213797263],[-75.14065639532576,10.585339539321868],[-75.14421446226605,10.576844827331792],[-75.16367759926533,10.581084635365912],[-75.16602473450767,10.57952475209554],[-75.16862780336771,10.572726670855284],[-75.17132484409133,10.570350850171428],[-75.22568862312835,10.56030125027258],[-75.22296410383852,10.552837823489272],[-75.22745917021399,10.54962364424115],[-75.22860768966095,10.543950127439535],[-75.23583373061987,10.53637452401672],[-75.23441994944932,10.53355002595232],[-75.23901447639473,10.529099893275594],[-75.24121944246356,10.519547726857756],[-75.23620443299829,10.512457423917828],[-75.24137852511724,10.504847860178902],[-75.24214358521043,10.501142345403258],[-75.24068550990985,10.495563300756197],[-75.2383513113059,10.494205392813013],[-75.23366541940788,10.485113560786571],[-75.23374570274314,10.479513752393203],[-75.22715785460643,10.476086690316905],[-75.22358963311021,10.47955500661631],[-75.22119028958018,10.479840326018648],[-75.21490115822492,10.474412653596826],[-75.20839501096499,10.474562757001207],[-75.20551967442043,10.471078085152454],[-75.19041313298716,10.467892925833942],[-75.18127714258016,10.458529831842535],[-75.16828335335516,10.45179199029414],[-75.16575297167634,10.447406343800719],[-75.15829641403235,10.442941241952822],[-75.15675673666966,10.437165641260583],[-75.15313369638152,10.43459846783639],[-75.15268921806377,10.423110995423817],[-75.1449709560247,10.419287472998459],[-75.1422595099172,10.413006865938012],[-75.13217906765139,10.4066118281099],[-75.13338678338062,10.404721274269452],[-75.12695040737049,10.398896132356226],[-75.13002892486602,10.397587515681971],[-75.129253918626,10.397310610984174],[-75.11942265285035,10.40221434085912],[-75.10715172176482,10.403945701987046],[-75.08485682998698,10.411970450552241],[-75.0742789932433,10.409353653581405],[-75.07286382327733,10.4108929132874],[-75.06466300064064,10.411948218452475],[-75.0640061695729,10.414164505292804],[-75.06078426478835,10.414898068414015],[-75.05799298450323,10.41862275582102],[-75.04582772763447,10.465946183103132],[-75.04733452575945,10.469082984266645],[-75.04104519138492,10.477428815651205],[-75.03657519339576,10.480681784585672],[-75.02543564279989,10.482637656643991],[-75.02256070510731,10.484786519264574],[-75.0270895148998,10.520838453961561],[-75.02685038606612,10.535995027030742],[-75.03237034304419,10.559846063921205],[-75.03977503286198,10.577352146787755],[-75.05126481143432,10.590042007591288]]]}},{"type":"Feature","properties":{"nombre":"SABANAGRANDE","color":"#118ab2"},"geometry":{"type":"Polygon","coordinates":[[[-74.73623669775812,10.80016797151581],[-74.74072604635681,10.834452092589505],[-74.75292772452046,10.834426162606807],[-74.75594861419219,10.832308588005484],[-74.7529612110193,10.826942714942824],[-74.75468924533413,10.822994540472008],[-74.76786467480787,10.825455765236258],[-74.80320674178971,10.812444174753029],[-74.80779198734162,10.812280781503883],[-74.80907390211668,10.807261536417212],[-74.81075519978221,10.808033814951589],[-74.813548405157,10.805153320903461],[-74.8170900176562,10.797523022587223],[-74.81670375645709,10.792466638364393],[-74.80887305678546,10.794244467786978],[-74.80917644929794,10.790734081251637],[-74.80755418711624,10.790374448986302],[-74.808488321824,10.779843648611019],[-74.81177500322536,10.777932907589046],[-74.80423366977139,10.774227639057237],[-74.80001242606417,10.77645319679724],[-74.793151976968,10.776847083840762],[-74.78162479973376,10.782819555296749],[-74.78107986191948,10.780449089853505],[-74.7784148488307,10.779607786505336],[-74.77923648212554,10.777243547182556],[-74.77763087920077,10.776862965681717],[-74.73876297952599,10.774670730693835],[-74.73853447327055,10.77082522715908],[-74.72511406513398,10.771726234978702],[-74.72736776031542,10.78112281015548],[-74.73623669775812,10.80016797151581]]]}},{"type":"Feature","properties":{"nombre":"SABANALARGA","color":"#db2777"},"geometry":{"type":"Polygon","coordinates":[[[-74.87537657604561,10.725023068497032],[-74.87834810688572,10.721749693608357],[-74.88582580727825,10.719288807380998],[-74.88775966179435,10.714551034738426],[-74.89641965110198,10.719545267119942],[-74.89991346783819,10.716692113806767],[-74.90232680981528,10.718896441036074],[-74.90512271193253,10.715007102448132],[-74.9043679357527,10.70944331298043],[-74.90558868873164,10.704949671229715],[-74.90723735599282,10.708501448520444],[-74.91066226655684,10.70479966120615],[-74.91830282342553,10.706576191461611],[-74.91707667157173,10.71108862571767],[-74.92268703679663,10.71176083347519],[-74.92291067777651,10.709128361657687],[-74.93250847320647,10.711446202320516],[-74.93589254635766,10.703044775504264],[-74.9388416022477,10.701089603747038],[-74.9356421697183,10.69361472232501],[-74.94098966812813,10.693631041953491],[-74.94637590189302,10.696677575843953],[-74.95657672739004,10.694008834751912],[-74.95802482150951,10.692054664008168],[-74.95943092927091,10.693068833424347],[-74.96427360233885,10.691990023355961],[-74.96705860968832,10.688944311888951],[-74.96726363308395,10.682946569608037],[-74.96990824633093,10.680588280607624],[-74.97635933494877,10.687006676568892],[-74.97411666209585,10.689039785997082],[-74.97779874056279,10.692080246092623],[-74.97681421665581,10.693266601525162],[-74.97920039627367,10.698139780595728],[-74.98153168164113,10.698778338552247],[-74.98092641117573,10.700651744489852],[-74.98501033032376,10.701813554957317],[-74.98703516082195,10.69874481891392],[-74.99548300668702,10.700246309534064],[-74.99777584505864,10.702196048478347],[-74.99612198014525,10.703646567227054],[-75.0013511964833,10.706109379455864],[-75.00553117877286,10.711034637581637],[-75.00647770394335,10.709262524745434],[-75.01183782368291,10.709412378975378],[-75.01355978628474,10.704597637268892],[-75.02275887974719,10.704615106441855],[-75.03217634557036,10.713119072233349],[-75.03851179046842,10.699445637568358],[-75.04066773187895,10.702352705557784],[-75.04441279662034,10.702228182795155],[-75.05053573515647,10.698614990524609],[-75.05392585307123,10.692260008261226],[-75.05657845503605,10.69650806451257],[-75.06241989749473,10.694963818947974],[-75.05688251859004,10.690042256140307],[-75.0556056999576,10.684344335058304],[-75.06332236209715,10.684645754101595],[-75.0617266451321,10.681100623576391],[-75.06208448453395,10.67337442058666],[-75.05719604409893,10.67048597372354],[-75.05563202688361,10.665207865923572],[-75.0584467334347,10.661203033556006],[-75.0585115908999,10.657619265027758],[-75.06251457363749,10.653905047994158],[-75.06289914241061,10.645678636153717],[-75.05468630750195,10.635957639929885],[-75.05570187808348,10.627416406353467],[-75.05410151862505,10.627487394690602],[-75.0536680662291,10.623335182708816],[-75.05701772132852,10.615083556273351],[-75.05642016020488,10.61180852468528],[-75.06015192269355,10.594935172477893],[-75.05126481143432,10.590042007591288],[-75.04512898297219,10.584112167541573],[-75.03581391700655,10.569653561316267],[-75.02685038606612,10.535995027030742],[-75.02708116505923,10.520754281071646],[-75.01014822019425,10.521413071125176],[-75.00427411589014,10.51726548655083],[-74.9985555387078,10.516840575361877],[-74.99623625662916,10.523188037961884],[-74.99233201401267,10.520056099083412],[-74.98832553593034,10.519665152303132],[-74.97975524340384,10.52337395024273],[-74.97333177079449,10.531624328655013],[-74.96124109565385,10.532282342131628],[-74.95888069319308,10.535966927212993],[-74.96017884232197,10.543756509745881],[-74.92277884192373,10.533822613966455],[-74.92324128834377,10.539054002357382],[-74.91753067113318,10.547759363612384],[-74.9116756344693,10.548282895989574],[-74.90824209558696,10.546332282940305],[-74.9008859031164,10.547182103777741],[-74.90074042275278,10.548981530649897],[-74.89186806901704,10.546412676069254],[-74.89586834063907,10.553975755317271],[-74.88149381477123,10.555509497486863],[-74.88254683342201,10.55791362790323],[-74.87769450526143,10.558594212980175],[-74.86537167311204,10.556692617909885],[-74.86875446346902,10.561816017595818],[-74.86481387142288,10.566081559599185],[-74.8581004819286,10.56067357124367],[-74.84662262669505,10.58827608288956],[-74.84725364646974,10.594242614131899],[-74.84105897386493,10.60128584455138],[-74.87537657604561,10.725023068497032]]]}},{"type":"Feature","properties":{"nombre":"SANTA LUC\u00cdA","color":"#7209b7"},"geometry":{"type":"Polygon","coordinates":[[[-74.97020773117194,10.393961790182594],[-74.99339496264061,10.394810302285695],[-74.9930491750366,10.392586220902944],[-74.99634021236879,10.392391770890965],[-75.00532586162817,10.3876130865531],[-75.00244257229838,10.384220427059015],[-75.0042725088041,10.381653036940222],[-75.00407109214436,10.378398614991257],[-75.00986467865293,10.37670279301204],[-75.02018788882762,10.378658009005997],[-75.02310391366467,10.37710759376946],[-75.02338906319036,10.37366731274777],[-75.0207309446714,10.372204340375625],[-75.02190173964243,10.369880646925878],[-75.03195216829627,10.370011523175798],[-75.03343861958007,10.368850998588295],[-75.02577567489786,10.363930025765784],[-75.00495973257287,10.36025345350248],[-74.9897797412887,10.347103634683924],[-74.98319329093057,10.34335272040406],[-74.96459544355231,10.325544360868285],[-74.93732684594762,10.289477854582298],[-74.9357238661035,10.292920202904112],[-74.93806058088855,10.298169052873625],[-74.93790973668436,10.301829166158488],[-74.9413433878561,10.305691260389485],[-74.93435185659365,10.313030125641685],[-74.9350855573986,10.316077037404687],[-74.9292680128214,10.321642403420295],[-74.91970525168753,10.325433460429158],[-74.91952499753924,10.3303361228641],[-74.91685843126335,10.335430064116142],[-74.91890574030488,10.335162184892232],[-74.91732324294756,10.338566134085871],[-74.93108985909966,10.340854912134494],[-74.93645417217498,10.343903269539076],[-74.9326969361598,10.34938279326725],[-74.9269237827307,10.349096337297727],[-74.91951771669387,10.360035201182262],[-74.92143378905891,10.361325362294226],[-74.92342876674358,10.360544017176286],[-74.92346790274725,10.362940438125555],[-74.93264684699788,10.359530763838682],[-74.93493622685564,10.362009360985153],[-74.9401950831065,10.376951010608977],[-74.94594702102354,10.376148247420641],[-74.95480900011607,10.378999967957432],[-74.96254248500595,10.37932613897301],[-74.96257712045005,10.383135281619868],[-74.96737054787411,10.382883887066283],[-74.97013381060383,10.38482331248058],[-74.97069629341392,10.389609827407913],[-74.97209562787808,10.390184459523212],[-74.97020773117194,10.393961790182594]]]}},{"type":"Feature","properties":{"nombre":"SANTO TOM\u00c1S","color":"#6b8e3d"},"geometry":{"type":"Polygon","coordinates":[[[-74.7785285135619,10.779158091592107],[-74.78107986191948,10.780449089853505],[-74.78162479973376,10.782819555296749],[-74.793151976968,10.776847083840762],[-74.80001242606417,10.77645319679724],[-74.80423366977139,10.774227639057237],[-74.81177500322536,10.777932907589046],[-74.81209296102186,10.775749964910611],[-74.819459343981,10.775656847036203],[-74.82265201848453,10.772029387508159],[-74.83172212644858,10.743845389843253],[-74.83369132158629,10.743842067856542],[-74.83434637398977,10.742033471889144],[-74.83583834901422,10.733127990468217],[-74.84006118094287,10.728964518373093],[-74.84066997729575,10.726187644276305],[-74.83940600996175,10.725368802385677],[-74.84141263789732,10.720462025941776],[-74.84048026388751,10.719023402744325],[-74.8422982545966,10.707392008060099],[-74.84941529397896,10.708273964612935],[-74.84813661044397,10.707042759129783],[-74.84886633350882,10.702765461359583],[-74.8472887858687,10.703773215795461],[-74.84734420383691,10.701547484465886],[-74.8457243221907,10.70175209672048],[-74.84608562549629,10.699708997376517],[-74.84444209570024,10.699443965738872],[-74.8459880603716,10.698363856938881],[-74.84402401707207,10.697603065826627],[-74.844387592217,10.693832674209945],[-74.84172156852355,10.694056202038874],[-74.84060980813803,10.691179813857852],[-74.8417614914514,10.690182601449013],[-74.83838721532668,10.689519717759861],[-74.83941457270305,10.687122798425014],[-74.83733633376796,10.686411084833527],[-74.83513805924967,10.69051515189301],[-74.83379290218029,10.6896550123509],[-74.83229646881708,10.69279343553499],[-74.82840407048761,10.69377248546436],[-74.82783602890254,10.69762593666233],[-74.82431934734738,10.698497771456179],[-74.82371037582303,10.702112225604747],[-74.81693725914215,10.700467967502506],[-74.8176972338725,10.698168189459718],[-74.81468730903713,10.697564292209092],[-74.8137569436603,10.701617834094616],[-74.81276214033153,10.701234969995989],[-74.81027563865938,10.706075869454871],[-74.80078550002801,10.705606550750625],[-74.79763808534346,10.715683184287188],[-74.79558574124476,10.716183827597341],[-74.79412240540987,10.723460450753043],[-74.791601679722,10.727905761161535],[-74.79031176994093,10.727719797705806],[-74.78915329536402,10.732681489224102],[-74.7848279315255,10.731321712516449],[-74.78447396655746,10.733140833173428],[-74.77821579384182,10.732399326907577],[-74.77722067789932,10.735802057454682],[-74.76748025246015,10.736933704707425],[-74.76525007517284,10.743361804743794],[-74.76051915432289,10.742020833436408],[-74.75796120065304,10.748667669566162],[-74.75517030215194,10.746637737995098],[-74.75205738097766,10.748060450550385],[-74.74558722112633,10.746714434217902],[-74.7393172167001,10.750276622305728],[-74.7329152012496,10.748658040900741],[-74.7277464774628,10.749399530199987],[-74.72511406513398,10.771726234978702],[-74.73853447327055,10.77082522715908],[-74.73876297952599,10.774670730693835],[-74.77093473197006,10.777362347094204],[-74.77421671158923,10.776265555674664],[-74.77923648212554,10.777243547182556],[-74.7785285135619,10.779158091592107]]]}},{"type":"Feature","properties":{"nombre":"SOLEDAD","color":"#ea580c"},"geometry":{"type":"Polygon","coordinates":[[[-74.7607125463322,10.944170114649944],[-74.76261155340181,10.945367997046255],[-74.76538485660144,10.943586832496957],[-74.76932971384855,10.94527341240346],[-74.7755943589258,10.943043381209023],[-74.7800572763939,10.93267464230319],[-74.782077747368,10.937624757377879],[-74.7906628567068,10.93361072757404],[-74.79670191595159,10.928044017540259],[-74.79723867101195,10.923452228139043],[-74.79929254314496,10.921314857569511],[-74.81458328143228,10.922592619110047],[-74.82113822248348,10.918571144306135],[-74.82704801505722,10.913526327506785],[-74.82825682134118,10.908275225652613],[-74.8360763010549,10.900821667299505],[-74.83911392903532,10.885473192037004],[-74.8316980129714,10.886893024821674],[-74.82257026820041,10.891738435583731],[-74.81822497433899,10.890384483606967],[-74.82486753077481,10.879014757277009],[-74.81391105413886,10.876620902550917],[-74.81119922714568,10.880098239979699],[-74.8075203835121,10.88060016902922],[-74.80560009715005,10.886013129170882],[-74.79906355269756,10.8797603202456],[-74.80044035471944,10.876285437507754],[-74.79655914490684,10.877493511815898],[-74.79534488674742,10.881459967337733],[-74.79128469749593,10.88009217860694],[-74.7916361606559,10.87730888308008],[-74.78949224768702,10.877448038328529],[-74.78974462038293,10.875709696222149],[-74.78796564620161,10.875125206106555],[-74.78700843736746,10.877688551862192],[-74.78463598849874,10.878428286105615],[-74.78022004303854,10.874485606575641],[-74.77956467802132,10.876658188673762],[-74.77587056482453,10.877488025568404],[-74.77541846789485,10.879132827859186],[-74.77880109296183,10.879566292520408],[-74.7774542874839,10.883296484815807],[-74.76948575929823,10.880786276882489],[-74.76979120805441,10.889931101885855],[-74.76465013171708,10.890615046787218],[-74.76359804372096,10.88848994455276],[-74.75739050364798,10.885615820031395],[-74.7418210289078,10.883981951672176],[-74.73810402843417,10.87600112351095],[-74.73771220576512,10.883860158546916],[-74.73468031173115,10.893042971590733],[-74.72041874182379,10.904908403193625],[-74.71842938849113,10.909376334334281],[-74.72138567581922,10.91307561667807],[-74.7388154420369,10.92257539283962],[-74.74539810958936,10.930092510633107],[-74.75384961429258,10.936128186753164],[-74.75729559304497,10.945368104647066],[-74.7607125463322,10.944170114649944]]]}},{"type":"Feature","properties":{"nombre":"SUAN","color":"#9d4edd"},"geometry":{"type":"Polygon","coordinates":[[[-74.89591413495563,10.352686721484659],[-74.89749631520766,10.354001826631873],[-74.89985358075145,10.352606826980772],[-74.90392825893016,10.353146111394121],[-74.90424070735904,10.34902426793742],[-74.9123213668517,10.348591418413793],[-74.91381003338098,10.346962968883698],[-74.91510022253813,10.347941389209037],[-74.91768863179104,10.344196179599505],[-74.91541318749829,10.340747186134617],[-74.91890574030488,10.335162184892232],[-74.91685843126335,10.335430064116142],[-74.91952499753924,10.3303361228641],[-74.91970525168753,10.325433460429158],[-74.9292680128214,10.321642403420295],[-74.9350855573986,10.316077037404687],[-74.93435185659365,10.313030125641685],[-74.9413433878561,10.305691260389485],[-74.93790973668436,10.301829166158488],[-74.93806058088855,10.298169052873625],[-74.9357238661035,10.292920202904112],[-74.93732684594762,10.289477854582298],[-74.9107970632568,10.25418105912065],[-74.90812362666561,10.253286072958034],[-74.90309847342412,10.275241302283309],[-74.8953160519108,10.295442659567833],[-74.88019557401422,10.318498104490441],[-74.86841791863098,10.3406225341159],[-74.87462293713295,10.344799244562237],[-74.88138195565377,10.346040706142496],[-74.88236053540852,10.34822198639534],[-74.88684144523343,10.350511606897442],[-74.88563751500482,10.353168041918146],[-74.89380439390015,10.351278411958376],[-74.89430405752242,10.346633376923286],[-74.89602459629452,10.347137354275619],[-74.89591413495563,10.352686721484659]]]}},{"type":"Feature","properties":{"nombre":"TUBAR\u00c1","color":"#6b8e3d"},"geometry":{"type":"Polygon","coordinates":[[[-74.95820076554106,10.980759862563252],[-74.97335758208753,10.978847644207775],[-74.9780744398117,10.975435935619185],[-74.98129026659504,10.979815889037942],[-75.0088006367753,10.977386491912652],[-75.0300900604253,10.96275556704759],[-75.03798483153625,10.952259358923492],[-75.04644732173708,10.949649646970691],[-75.050213512159,10.94676771428655],[-75.05797259633954,10.936411084103968],[-75.0583634263702,10.93124870498864],[-75.05518031802615,10.933258302257999],[-75.05408795496257,10.936684210393652],[-75.0497150927034,10.93678903690719],[-75.04926224029057,10.938930986442507],[-75.04628525667667,10.939993953555003],[-75.0442726118253,10.944764460919993],[-75.03984970531998,10.944546050181817],[-75.03610391743479,10.946802374806735],[-75.03549585320886,10.95023580295653],[-75.03319197274575,10.951811941072345],[-75.03063931194957,10.95190825490336],[-75.02781821208859,10.949739339743942],[-75.02607164103789,10.943201882792726],[-75.02832890612424,10.940966257442222],[-75.03092487470029,10.930430751566194],[-75.03395095753267,10.928062912285016],[-75.03422164058904,10.922756328607889],[-75.03912017000302,10.910830607540186],[-75.04546214205992,10.900356919643052],[-75.06077367005787,10.889550306330962],[-75.07435560067242,10.886785345485253],[-75.06694888245872,10.881744555774182],[-75.06398031695734,10.877434139656163],[-75.05949152261917,10.88584988198291],[-75.05563019072717,10.886158716518446],[-75.05514616407906,10.877707163981336],[-75.05352668936966,10.877121348341333],[-75.05263006740986,10.880760581166625],[-75.05238322653946,10.878853372047551],[-75.04919178272789,10.879297227311715],[-75.04891010968235,10.871801073063798],[-75.04403329254879,10.871387201214432],[-75.04221955087102,10.869807330972385],[-75.043199943426,10.866930002147557],[-75.03990260261548,10.86667109738921],[-75.03736814617854,10.86242315841764],[-75.03622185635011,10.864331370671014],[-75.03301699350483,10.86083912338684],[-75.02820206041288,10.860083777766718],[-75.0265367006571,10.85487755150281],[-75.01792357016964,10.855796466913624],[-75.01378081855702,10.852784432912818],[-75.00957448868017,10.852341593392977],[-75.01078029099783,10.846434404319371],[-75.00699553150066,10.844620147423885],[-75.00780597448201,10.834039510997462],[-75.00335966416858,10.830703680257423],[-74.99896432875593,10.83102736201804],[-74.9959458780102,10.829089623975898],[-74.99867226489751,10.817395378761919],[-74.99771242669453,10.81506209436827],[-74.99220215175858,10.816541567380511],[-74.99297905524047,10.818787196607897],[-74.99110947697957,10.818636642343426],[-74.99169188711764,10.819706559005395],[-74.98998144451102,10.819567537466497],[-74.98985773122504,10.820972541535543],[-74.98626226562284,10.820191474635427],[-74.9847400173733,10.816158179468777],[-74.97972307563182,10.8175472836483],[-74.97788891614596,10.816108707520387],[-74.97586192609785,10.817786159196329],[-74.9751531382707,10.816428677976054],[-74.9732761659767,10.818169859143326],[-74.97160814451274,10.816567488322724],[-74.97153781720577,10.819202148012875],[-74.96844673497438,10.82061630457407],[-74.96511701079616,10.825854842276762],[-74.96625626591758,10.834577490656455],[-74.96370688217554,10.835570485394872],[-74.96308707607055,10.83844555750949],[-74.96034064956588,10.83948651379814],[-74.95875056773261,10.84249725334959],[-74.95064488387104,10.847417017807494],[-74.94499632228026,10.859545786650386],[-74.94195687970297,10.862759230132513],[-74.94232436611266,10.864842289530648],[-74.93411077122929,10.868951801559914],[-74.93525777970993,10.872368747206373],[-74.92982314561584,10.87738913812363],[-74.9299854954422,10.886295640208461],[-74.9319624196846,10.886538507231423],[-74.93284338939888,10.88915808656802],[-74.92824356778318,10.895684764626175],[-74.92284467675596,10.94221076648427],[-74.91839993130775,10.945286750496257],[-74.92042788345154,10.949906719966608],[-74.92418132588129,10.95274683170454],[-74.92491585852616,10.950836863745478],[-74.93112922956362,10.9524928083203],[-74.92847652698751,10.957342873336135],[-74.92848877012652,10.966892062439637],[-74.92419906311655,10.966768381647515],[-74.919491199325,10.972217518198505],[-74.92336613979523,10.974328598410402],[-74.93014754523125,10.974804139940938],[-74.93234593024233,10.977802498299019],[-74.93745549457779,10.974328577245071],[-74.94189601884247,10.973757518436226],[-74.94694776580963,10.975809271319351],[-74.94714757089176,10.971471850548621],[-74.95025920118695,10.970929860619371],[-74.95636353741018,10.975371633914376],[-74.95561914665336,10.977990559400277],[-74.95820076554106,10.980759862563252]]]}},{"type":"Feature","properties":{"nombre":"USIACUR\u00cd","color":"#00b4d8"},"geometry":{"type":"Polygon","coordinates":[[[-74.97205323727815,10.791564537552905],[-74.97547328256658,10.789893123464642],[-74.98487069978927,10.790391156069331],[-74.99258748140475,10.785004631631093],[-74.99408427050082,10.790302372821134],[-75.00160699086213,10.790736621770082],[-74.999199142083,10.78439769321488],[-75.00100448091962,10.780477760128784],[-75.0026864388469,10.780459052838452],[-75.00305891270303,10.775835136955356],[-75.0203642344061,10.776220437458674],[-75.0200621983497,10.77723437301976],[-75.02076586847468,10.775873198080971],[-75.01961659803617,10.774094426133422],[-75.02233886435125,10.771211274480656],[-75.02228708635658,10.76882127008592],[-75.03333668684645,10.769657283909526],[-75.03706627541214,10.771456074819799],[-75.0432034154146,10.768698533522242],[-75.04660883792685,10.760248083105889],[-75.04615444220836,10.757316800878035],[-75.03141791684061,10.756361791119371],[-75.03046891770985,10.754043657643393],[-75.03175487400536,10.743290632556514],[-75.03368347337705,10.743272981159535],[-75.0332015972957,10.741194259827088],[-75.03054481277495,10.741784253329907],[-75.02958153402442,10.727752372386885],[-75.03735751371882,10.72398606305122],[-75.04167325031244,10.718546995303555],[-75.04179946360986,10.707908180702418],[-75.0455529707183,10.701682559198819],[-75.04066773187895,10.702352705557784],[-75.03851179046842,10.699445637568358],[-75.03217634557036,10.713119072233349],[-75.02275887974719,10.704615106441855],[-75.01355978628474,10.704597637268892],[-75.01183782368291,10.709412378975378],[-75.00647770394335,10.709262524745434],[-75.00553117877286,10.711034637581637],[-75.0013511964833,10.706109379455864],[-74.99612198014525,10.703646567227054],[-74.99777584505864,10.702196048478347],[-74.99548300668702,10.700246309534064],[-74.98703516082195,10.69874481891392],[-74.98501033032376,10.701813554957317],[-74.98092641117573,10.700651744489852],[-74.98153168164113,10.698778338552247],[-74.97920039627367,10.698139780595728],[-74.97681421665581,10.693266601525162],[-74.97779874056279,10.692080246092623],[-74.97411666209585,10.689039785997082],[-74.97635933494877,10.687006676568892],[-74.96990824633093,10.680588280607624],[-74.96726363308395,10.682946569608037],[-74.96705860968832,10.688944311888951],[-74.96427360233885,10.691990023355961],[-74.95943092927091,10.693068833424347],[-74.95802482150951,10.692054664008168],[-74.95657672739004,10.694008834751912],[-74.94637590189302,10.696677575843953],[-74.94098966812813,10.693631041953491],[-74.9356421697183,10.69361472232501],[-74.9388416022477,10.701089603747038],[-74.93589254635766,10.703044775504264],[-74.93250847320647,10.711446202320516],[-74.93708931431851,10.711486556776407],[-74.94210227652329,10.714974196283066],[-74.93475413205937,10.727647773641062],[-74.93484555270751,10.731967277209995],[-74.93660365812647,10.733814583265115],[-74.931351948872,10.738508504844786],[-74.93232841309427,10.741871849691647],[-74.93562066944028,10.744059073650412],[-74.92635903796271,10.75383167096735],[-74.92627098959012,10.756139076245573],[-74.93116547478871,10.758448767263106],[-74.93264966860617,10.763539772023941],[-74.93092486103986,10.76665732956763],[-74.93419250803868,10.77079663185862],[-74.93920833497087,10.772098357289154],[-74.94138701274125,10.777531640108345],[-74.94454457120199,10.7775952264481],[-74.94595591703983,10.78070700133559],[-74.95088002867645,10.779493372442861],[-74.95086305051757,10.780907893351516],[-74.95349070536864,10.781521000129436],[-74.95477614243794,10.786152495315113],[-74.96092823399997,10.784672300770698],[-74.96767517916336,10.786699243191704],[-74.97205323727815,10.791564537552905]]]}}]}